#aV2009 11 28  0  0   .00000000      96 DD+AD WGS84 FIT  NGA
## 1559 518400.00000000   900.00000000 55163  .0000000000000
+   32     1  2  3  4  5  6  7  8  9 10 11 12 13 14 15 16 17
+         18 19 20 21 22 23 24 25 26 27 28 29 30 31 32  0  0
+          0  0  0  0  0  0  0  0  0  0  0  0  0  0  0  0  0
+          0  0  0  0  0  0  0  0  0  0  0  0  0  0  0  0  0
+          0  0  0  0  0  0  0  0  0  0  0  0  0  0  0  0  0
++         0  0  0  0  0  0  0  0  0  0  0  0  0  0  0  0  0
++         0  0  0  0  0  0  0  0  0  0  0  0  0  0  0  0  0
++         0  0  0  0  0  0  0  0  0  0  0  0  0  0  0  0  0
++         0  0  0  0  0  0  0  0  0  0  0  0  0  0  0  0  0
++         0  0  0  0  0  0  0  0  0  0  0  0  0  0  0  0  0
%c cc cc ccc ccc cccc cccc cccc cccc ccccc ccccc ccccc ccccc
%c cc cc ccc ccc cccc cccc cccc cccc ccccc ccccc ccccc ccccc
%f  0.0000000  0.000000000  0.00000000000  0.000000000000000
%f  0.0000000  0.000000000  0.00000000000  0.000000000000000
%i    0    0    0    0      0      0      0      0         0
%i    0    0    0    0      0      0      0      0         0
/*      NGA, ST. LOUIS,MO.                                  
/*   EPHEMERIS COMPUTED FROM  3 DAYS OF DATA                
/* CCCCCCCCCCCCCCCCCCCCCCCCCCCCCCCCCCCCCCCCCCCCCCCCCCCCCCCCC
/* CCCCCCCCCCCCCCCCCCCCCCCCCCCCCCCCCCCCCCCCCCCCCCCCCCCCCCCCC
*  2009 11 28 20  0   .00000000                                                 
P  1 -15198.661056  -7135.321174  20502.602533    -67.831569                    
V  1  -2165.423276 -26157.350628 -10553.230268      -.024078                    
P  2  -1082.661735 -16757.137158  20596.849714    197.147643                    
V  2  24521.833627   9501.298815   8559.877856       .046662                    
P  3  -3351.273523  20419.282664 -16807.726022    480.767984                    
V  3 -17025.412880  12448.421905  19260.726978       .052140                    
P  4  12649.015673 -10848.177824  20590.001273   -381.311977                    
V  4  23924.524174  11453.698414  -8230.096140      -.184361                    
P  5  -2345.487149 -26394.590148    960.447002    -36.789555                    
V  5   3005.840516    902.684482  31779.775428       .061139                    
P  6  -8222.454998  20502.596964 -14496.302859    262.927788                    
V  6 -16385.696666   9691.365310  22822.282281       .010505                    
P  7  25091.023277   6225.404316  -6453.592014      6.903812                    
V  7   6521.941368   5379.948069  30442.283050      -.007078                    
P  8  20531.025424  -1915.780732 -17061.505384       .284919                    
V  8  18536.405913  10613.724583  20638.150507       .004225                    
P  9 -18458.144604 -15761.487595 -11497.839862     91.074309                    
V  9  13219.052481   3459.461585 -27510.346861       .021131                    
P 10   1069.439691 -25897.462045   4702.933045    -29.308783                    
V 10   3750.308785   5941.331915  31111.692285      -.007786                    
P 11  22114.062543  11963.124808  -9340.856143    -31.547397                    
V 11 -12149.650178   1907.530793 -26658.770597      -.019990                    
P 12 -11122.094603 -20396.983818  13049.709002   -183.722893                    
V 12    251.681069 -16528.179522 -25598.901923       .052246                    
P 13  22059.314651  -3042.652210  14363.526216    306.414453                    
V 13 -14738.277279  11084.883712  24752.988779       .000911                    
P 14 -21869.251276  14949.024165    344.300907    -18.690674                    
V 14  -1383.325146  -1581.004826 -32409.262674       .047416                    
P 15  -3179.752699 -16098.718487 -20837.470327   -319.342701                    
V 15  21682.268245 -15376.282903   8645.687625       .008031                    
P 16  -3476.276585  24909.226734   8177.707864    -13.572963                    
V 16  -3409.922374 -10124.683723  29799.130337      -.042346                    
P 17  21268.654494 -15702.966592    837.106960    106.748951                    
V 17   2551.662288   1919.046424 -31835.657630       .036377                    
P 18 -15613.639636   -532.316551 -21242.376914     30.931413                    
V 18  -2256.793962 -27539.288477   1952.019293       .027615                    
P 19   4310.631108  15061.890166 -21378.187706     -1.111584                    
V 19 -23468.000766  13930.333407   5348.373792      -.020105                    
P 20  13908.931035  16089.275348  15816.510145     66.603728                    
V 20    482.732172  20483.819218 -21037.410007      -.008350                    
P 21 -24569.527633  -2971.273274 -10150.806136    -24.239012                    
V 21 -10787.491866  -8044.119714  27043.674317      -.023783                    
P 22 -12720.516527  13599.574645 -18746.621084    185.260236                    
V 22  -3683.986072 -24036.988663 -14882.839327      -.007908                    
P 23  14858.227067   6973.955778  20917.864482    385.313686                    
V 23 -21121.244281  16062.843186   9339.448649      -.006330                    
P 24 -22637.855226 -13401.906153   2585.845597    240.433172                    
V 24   4343.118218  -1570.198443  31449.625463       .032369                    
P 25  24889.757253   8949.828980    933.545520     36.063855                    
V 25  -1562.947014   2245.724504  32094.974037       .136365                    
P 26 -24001.722449   8805.990035  -8586.995691      1.001424                    
V 26   7733.244398  -6438.793483 -29670.012562      -.022645                    
P 27 -16630.155477 -15590.907432 -12989.056762    103.795085                    
V 27  17180.945736   4269.972471 -25709.868587       .032330                    
P 28  13001.308226 -10615.927574 -20054.845511    -25.117793                    
V 28   3259.309238  26367.462517 -11891.434540       .001798                    
P 29 -20643.806768      -.787027  16776.212878     77.849762                    
V 29  16355.122837 -13540.428983  20271.846898       .028993                    
P 30 -15279.875045  -9205.671856  19311.034264    197.091989                    
V 30  -2523.305248 -25271.684314 -13713.487041       .031847                    
P 31  -9806.233972  11878.289002  21867.101860    -60.021084                    
V 31 -24783.099796 -11196.693531  -4937.507100       .009517                    
P 32   8170.392390  23154.605945  10880.255616    148.730498                    
V 32  -1772.521138  13204.704649 -27429.559974      -.076628                    
EOF
